{
  "type": "FeatureCollection",
  "features": [
    {
      "type": "Feature",
      "properties": {
        "norad_id": 36828,
        "name": "BEIDOU-2 IGSO-1 (C06)",
        "group": "beidou",
        "lat": 13.680189609738182,
        "lon": -25.495524512634482,
        "alt_km": 35653.02888274721,
        "timestamp": "2025-12-16T08:59:43.425298+00:00",
        "meta_object_name": "BEIDOU-2 IGSO-1 (C06)",
        "meta_object_id": "2010-036A",
        "meta_epoch": "2025-12-14T21:38:21.623424",
        "meta_mean_motion": 1.00275796,
        "meta_eccentricity": 0.00512569,
        "meta_inclination": 54.2866,
        "meta_ra_of_asc_node": 164.6279,
        "meta_arg_of_pericenter": 215.8888,
        "meta_mean_anomaly": 135.7931,
        "meta_ephemeris_type": 0,
        "meta_classification_type": "U",
        "meta_norad_cat_id": 36828,
        "meta_element_set_no": 999,
        "meta_rev_at_epoch": 5624,
        "meta_bstar": 0,
        "meta_mean_motion_dot": -2.4e-07,
        "meta_mean_motion_ddot": 0,
        "tle_line1": "1 36828U 10036A   25348.90163916 -.00000024  00000+0  00000+0 0  9999",
        "tle_line2": "2 36828  54.2866 164.6279 0051256 215.8888 135.7931  1.00275796 56247"
      },
      "geometry": {
        "type": "Point",
        "coordinates": [
          -25.495524512634482,
          13.680189609738182
        ]
      }
    },
    {
      "type": "Feature",
      "properties": {
        "norad_id": 37210,
        "name": "BEIDOU-2 G4 (C04)",
        "group": "beidou",
        "lat": -2.4156646923256155,
        "lon": 20.418109210846254,
        "alt_km": 35807.69796209332,
        "timestamp": "2025-12-16T08:59:43.425323+00:00",
        "meta_object_name": "BEIDOU-2 G4 (C04)",
        "meta_object_id": "2010-057A",
        "meta_epoch": "2025-12-15T22:42:35.160192",
        "meta_mean_motion": 1.00271903,
        "meta_eccentricity": 0.00105925,
        "meta_inclination": 3.1926,
        "meta_ra_of_asc_node": 69.9278,
        "meta_arg_of_pericenter": 192.045,
        "meta_mean_anomaly": 323.5948,
        "meta_ephemeris_type": 0,
        "meta_classification_type": "U",
        "meta_norad_cat_id": 37210,
        "meta_element_set_no": 999,
        "meta_rev_at_epoch": 5545,
        "meta_bstar": 0,
        "meta_mean_motion_dot": -9.1e-07,
        "meta_mean_motion_ddot": 0,
        "tle_line1": "1 37210U 10057A   25349.94624028 -.00000091  00000+0  00000+0 0  9993",
        "tle_line2": "2 37210   3.1926  69.9278 0010592 192.0450 323.5948  1.00271903 55451"
      },
      "geometry": {
        "type": "Point",
        "coordinates": [
          20.418109210846254,
          -2.4156646923256155
        ]
      }
    },
    {
      "type": "Feature",
      "properties": {
        "norad_id": 37256,
        "name": "BEIDOU-2 IGSO-2 (C07)",
        "group": "beidou",
        "lat": 36.73562297238198,
        "lon": -43.55749540065979,
        "alt_km": 35973.421484950304,
        "timestamp": "2025-12-16T08:59:43.425338+00:00",
        "meta_object_name": "BEIDOU-2 IGSO-2 (C07)",
        "meta_object_id": "2010-068A",
        "meta_epoch": "2025-12-15T17:44:21.809184",
        "meta_mean_motion": 1.00285693,
        "meta_eccentricity": 0.00486119,
        "meta_inclination": 47.8802,
        "meta_ra_of_asc_node": 274.1114,
        "meta_arg_of_pericenter": 216.5623,
        "meta_mean_anomaly": 327.802,
        "meta_ephemeris_type": 0,
        "meta_classification_type": "U",
        "meta_norad_cat_id": 37256,
        "meta_element_set_no": 999,
        "meta_rev_at_epoch": 5495,
        "meta_bstar": 0,
        "meta_mean_motion_dot": -2.2e-06,
        "meta_mean_motion_ddot": 0,
        "tle_line1": "1 37256U 10068A   25349.73914131 -.00000220  00000+0  00000+0 0  9993",
        "tle_line2": "2 37256  47.8802 274.1114 0048611 216.5623 327.8020  1.00285693 54958"
      },
      "geometry": {
        "type": "Point",
        "coordinates": [
          -43.55749540065979,
          36.73562297238198
        ]
      }
    },
    {
      "type": "Feature",
      "properties": {
        "norad_id": 37384,
        "name": "BEIDOU-2 IGSO-3 (C08)",
        "group": "beidou",
        "lat": -58.161627811814604,
        "lon": -16.320498037519183,
        "alt_km": 35814.27267058689,
        "timestamp": "2025-12-16T08:59:43.425351+00:00",
        "meta_object_name": "BEIDOU-2 IGSO-3 (C08)",
        "meta_object_id": "2011-013A",
        "meta_epoch": "2025-12-15T15:08:39.193152",
        "meta_mean_motion": 1.00270237,
        "meta_eccentricity": 0.00354064,
        "meta_inclination": 62.1477,
        "meta_ra_of_asc_node": 41.8879,
        "meta_arg_of_pericenter": 187.6383,
        "meta_mean_anomaly": 189.6615,
        "meta_ephemeris_type": 0,
        "meta_classification_type": "U",
        "meta_norad_cat_id": 37384,
        "meta_element_set_no": 999,
        "meta_rev_at_epoch": 5382,
        "meta_bstar": 0,
        "meta_mean_motion_dot": -1.9e-06,
        "meta_mean_motion_ddot": 0,
        "tle_line1": "1 37384U 11013A   25349.63100918 -.00000190  00000+0  00000+0 0  9991",
        "tle_line2": "2 37384  62.1477  41.8879 0035406 187.6383 189.6615  1.00270237 53821"
      },
      "geometry": {
        "type": "Point",
        "coordinates": [
          -16.320498037519183,
          -58.161627811814604
        ]
      }
    },
    {
      "type": "Feature",
      "properties": {
        "norad_id": 37763,
        "name": "BEIDOU-2 IGSO-4 (C09)",
        "group": "beidou",
        "lat": 27.318093221794598,
        "lon": -34.293421393827366,
        "alt_km": 35712.067076912324,
        "timestamp": "2025-12-16T08:59:43.425364+00:00",
        "meta_object_name": "BEIDOU-2 IGSO-4 (C09)",
        "meta_object_id": "2011-038A",
        "meta_epoch": "2025-12-15T07:50:06.120672",
        "meta_mean_motion": 1.00281785,
        "meta_eccentricity": 0.01493054,
        "meta_inclination": 54.5835,
        "meta_ra_of_asc_node": 167.3229,
        "meta_arg_of_pericenter": 230.222,
        "meta_mean_anomaly": 258.6911,
        "meta_ephemeris_type": 0,
        "meta_classification_type": "U",
        "meta_norad_cat_id": 37763,
        "meta_element_set_no": 999,
        "meta_rev_at_epoch": 5280,
        "meta_bstar": 0,
        "meta_mean_motion_dot": 6.8e-07,
        "meta_mean_motion_ddot": 0,
        "tle_line1": "1 37763U 11038A   25349.32645973  .00000068  00000+0  00000+0 0  9993",
        "tle_line2": "2 37763  54.5835 167.3229 0149305 230.2220 258.6911  1.00281785 52800"
      },
      "geometry": {
        "type": "Point",
        "coordinates": [
          -34.293421393827366,
          27.318093221794598
        ]
      }
    },
    {
      "type": "Feature",
      "properties": {
        "norad_id": 37948,
        "name": "BEIDOU-2 IGSO-5 (C10)",
        "group": "beidou",
        "lat": 28.31825186975755,
        "lon": -57.25219901725192,
        "alt_km": 36240.787702376816,
        "timestamp": "2025-12-16T08:59:43.425376+00:00",
        "meta_object_name": "BEIDOU-2 IGSO-5 (C10)",
        "meta_object_id": "2011-073A",
        "meta_epoch": "2025-12-12T18:24:47.608416",
        "meta_mean_motion": 1.00291151,
        "meta_eccentricity": 0.01101752,
        "meta_inclination": 48.0199,
        "meta_ra_of_asc_node": 273.857,
        "meta_arg_of_pericenter": 222.308,
        "meta_mean_anomaly": 314.7254,
        "meta_ephemeris_type": 0,
        "meta_classification_type": "U",
        "meta_norad_cat_id": 37948,
        "meta_element_set_no": 999,
        "meta_rev_at_epoch": 5126,
        "meta_bstar": 0,
        "meta_mean_motion_dot": -2.21e-06,
        "meta_mean_motion_ddot": 0,
        "tle_line1": "1 37948U 11073A   25346.76721769 -.00000221  00000+0  00000+0 0  9992",
        "tle_line2": "2 37948  48.0199 273.8570 0110175 222.3080 314.7254  1.00291151 51268"
      },
      "geometry": {
        "type": "Point",
        "coordinates": [
          -57.25219901725192,
          28.31825186975755
        ]
      }
    },
    {
      "type": "Feature",
      "properties": {
        "norad_id": 38091,
        "name": "BEIDOU-2 G5 (C05)",
        "group": "beidou",
        "lat": -1.4990618725270621,
        "lon": -81.04026195729269,
        "alt_km": 35735.707158323596,
        "timestamp": "2025-12-16T08:59:43.425389+00:00",
        "meta_object_name": "BEIDOU-2 G5 (C05)",
        "meta_object_id": "2012-008A",
        "meta_epoch": "2025-12-16T03:21:53.409600",
        "meta_mean_motion": 1.00277301,
        "meta_eccentricity": 0.0012447,
        "meta_inclination": 3.1173,
        "meta_ra_of_asc_node": 70.7005,
        "meta_arg_of_pericenter": 229.6323,
        "meta_mean_anomaly": 254.026,
        "meta_ephemeris_type": 0,
        "meta_classification_type": "U",
        "meta_norad_cat_id": 38091,
        "meta_element_set_no": 999,
        "meta_rev_at_epoch": 5053,
        "meta_bstar": 0,
        "meta_mean_motion_dot": 7.6e-07,
        "meta_mean_motion_ddot": 0,
        "tle_line1": "1 38091U 12008A   25350.14020150  .00000076  00000+0  00000+0 0  9991",
        "tle_line2": "2 38091   3.1173  70.7005 0012447 229.6323 254.0260  1.00277301 50535"
      },
      "geometry": {
        "type": "Point",
        "coordinates": [
          -81.04026195729269,
          -1.4990618725270621
        ]
      }
    }
  ]
}